IRIDIUM 36 [-]          
1 24967U 97056C   23230.15690136  .00000467  00000+0  15310-3 0  9995
2 24967  86.3928  93.8877 0002230  80.9847 279.1603 14.36364690356140
IRIDIUM 39 [-]          
1 25042U 97069D   23229.80117314  .00000781  00000+0  20748-3 0  9996
2 25042  86.3954 137.7846 0019607  25.7600 334.4575 14.47311172352348
IRIDIUM 38 [-]          
1 25043U 97069E   23230.33134014  .00000562  00000+0  18363-3 0  9990
2 25043  86.4019 154.2986 0003736 115.6442 244.5142 14.36845156350138
IRIDIUM 42 [-]          
1 25077U 97077A   23229.32851698  .00000496  00000+0  16685-3 0  9998
2 25077  86.4027 160.0655 0002634  98.4767 261.6728 14.35164280345085
IRIDIUM 44 [-]          
1 25078U 97077B   23229.81754965  .00000570  00000+0  17852-3 0  9992
2 25078  86.4001 143.6081 0004114  77.5102 282.6556 14.38944640347436
IRIDIUM 45 [-]          
1 25104U 97082A   23230.44778380  .00009952  00000+0  66692-3 0  9995
2 25104  86.3814   3.7895 0182070 256.7277 101.3590 14.94113740351620
IRIDIUM 24 [-]          
1 25105U 97082B   23230.07025506  .00000713  00000+0  21705-3 0  9992
2 25105  86.3955   3.5975 0013450 121.4257 238.8260 14.40686912347087
IRIDIUM 51 [-]          
1 25262U 98018A   23229.67830405  .00017674  00000+0  10250-2 0  9998
2 25262  86.3963  14.8276 0169196 216.0297 142.9439 15.00666686345818
